OBJECT_NAME,OBJECT_ID,EPOCH,MEAN_MOTION,ECCENTRICITY,INCLINATION,RA_OF_ASC_NODE,ARG_OF_PERICENTER,MEAN_ANOMALY,EPHEMERIS_TYPE,CLASSIFICATION_TYPE,NORAD_CAT_ID,ELEMENT_SET_NO,REV_AT_EPOCH,BSTAR,MEAN_MOTION_DOT,MEAN_MOTION_DDOT
ONEWEB-0012,2019-010A,2026-07-04T19:24:10.903392,13.16596454,.00016957,87.9081,225.2853,88.0737,272.0588,0,U,44057,999,35388,.30384637E-4,.24E-6,0
ONEWEB-0010,2019-010B,2026-07-04T20:00:40.389120,13.16592510,.00021813,87.9079,225.2765,104.2315,255.9058,0,U,44058,999,35393,-.22723618E-3,-.74E-6,0
ONEWEB-0008,2019-010C,2026-07-04T20:37:08.810400,13.16592943,.00022613,87.9083,225.2666,90.5104,269.6286,0,U,44059,999,35405,.21852962E-3,.96E-6,0
ONEWEB-0007,2019-010D,2026-07-04T21:47:55.982112,13.15547941,.00018097,87.8995,255.6906,104.9667,255.1664,0,U,44060,999,35370,-.40059824E-3,-.138E-5,0
ONEWEB-0006,2019-010E,2026-07-04T21:53:38.692896,13.15550465,.00021843,87.9001,255.6561,100.4269,259.7107,0,U,44061,999,35375,-.2456193E-3,-.8E-6,0
ONEWEB-0011,2019-010F,2026-07-04T10:10:51.751776,13.15548901,.00022341,87.9006,255.7631,100.1381,260.0001,0,U,44062,999,35368,.34534852E-3,.143E-5,0
ONEWEB-0013,2020-008A,2026-07-04T21:32:11.430528,13.09462786,.00013802,87.8510,49.2510,47.0476,313.0767,0,U,45131,999,30838,-.21777467E-3,-.62E-6,0
ONEWEB-0017,2020-008B,2026-07-04T20:49:07.250592,13.10375737,.00018715,87.8817,32.7453,89.4038,270.7304,0,U,45132,999,31026,.16790553E-2,.599E-5,0
ONEWEB-0020,2020-008C,2026-07-04T20:05:03.500448,13.10372766,.00018116,87.8822,32.7511,85.0308,275.1026,0,U,45133,999,31065,-.17940417E-2,-.614E-5,0
ONEWEB-0021,2020-008D,2026-07-04T20:27:03.204288,13.10375246,.00017024,87.8822,32.7628,86.7882,273.3440,0,U,45134,999,31096,-.62343765E-3,-.205E-5,0
ONEWEB-0023,2020-008F,2026-07-04T20:42:57.814560,13.10378594,.00018797,87.8828,32.7438,80.1250,280.0090,0,U,45136,999,31039,.13190955E-2,.473E-5,0
ONEWEB-0024,2020-008G,2026-07-04T20:02:47.956128,13.10371318,.00017811,87.8831,32.7430,87.7656,272.3675,0,U,45137,999,31055,-.19389245E-2,-.664E-5,0
ONEWEB-0025,2020-008H,2026-07-04T20:02:24.520992,13.10371992,.00022879,87.8832,32.7329,83.8171,276.3217,0,U,45138,999,31088,-.16718091E-2,-.571E-5,0
ONEWEB-0026,2020-008J,2026-07-04T18:47:40.938144,13.11415229,.00019352,87.8878,17.5643,91.5251,268.6098,0,U,45139,999,31341,-.12487766E-2,-.43E-5,0
ONEWEB-0028,2020-008K,2026-07-04T20:02:10.081824,13.11414942,.00015175,87.8873,17.5616,72.2751,287.8543,0,U,45140,999,31093,.14867293E-2,.54E-5,0
ONEWEB-0032,2020-008L,2026-07-04T20:51:44.800128,13.10373641,.0001673,87.8820,32.7471,69.4920,290.6387,0,U,45141,999,31061,.1934887E-2,.688E-5,0
ONEWEB-0033,2020-008M,2026-07-04T20:14:49.805664,13.10373859,.00020706,87.8819,32.7588,99.7143,260.4218,0,U,45142,999,31052,-.12243053E-2,-.415E-5,0
ONEWEB-0035,2020-008N,2026-07-04T20:44:22.632576,13.10373860,.00018669,87.8818,32.7477,87.3730,272.7611,0,U,45143,999,31025,.119289E-2,.429E-5,0
ONEWEB-0036,2020-008P,2026-07-04T20:12:12.836736,13.10370213,.00017924,87.8836,32.7682,79.1568,280.9761,0,U,45144,999,31067,-.12783747E-2,-.434E-5,0
ONEWEB-0038,2020-008Q,2026-07-04T19:02:31.753248,13.11416711,.00011885,87.8895,17.5737,152.1803,207.9388,0,U,45145,999,31263,-.15354904E-2,-.531E-5,0
ONEWEB-0039,2020-008R,2026-07-04T20:19:43.555296,13.10376313,.00014729,87.8822,32.7487,70.5015,289.6271,0,U,45146,999,31047,-.77316869E-3,-.257E-5,0
ONEWEB-0040,2020-008S,2026-07-04T20:09:55.846944,13.10372949,.00019906,87.8818,32.7607,77.9073,282.2277,0,U,45147,999,31017,-.1623368E-2,-.554E-5,0
ONEWEB-0043,2020-008U,2026-07-04T20:12:35.217792,13.10368407,.0001509,87.8825,32.7492,70.9088,289.2202,0,U,45149,999,31049,-.14112673E-2,-.48E-5,0
ONEWEB-0044,2020-008V,2026-07-04T00:44:30.684480,13.10373777,.00018287,87.8828,32.9120,81.2882,278.8453,0,U,45150,999,31068,.1948699E-2,.693E-5,0
ONEWEB-0045,2020-008W,2026-07-04T18:55:00.312384,13.11415886,.00017128,87.8888,17.5560,87.3085,272.8239,0,U,45151,999,31271,-.13652823E-2,-.471E-5,0
ONEWEB-0047,2020-008X,2026-07-04T20:43:58.882944,13.10374100,.00017853,87.8827,32.7453,93.1080,267.0252,0,U,45152,999,31051,.16561992E-2,.591E-5,0
ONEWEB-0048,2020-008Y,2026-07-04T20:36:50.242176,13.10378273,.00017874,87.8820,32.7659,88.3711,271.7621,0,U,45153,999,31012,.10134938E-2,.366E-5,0
ONEWEB-0049,2020-008Z,2026-07-04T20:41:31.504416,13.10373907,.00021063,87.8819,32.7545,76.2985,283.8376,0,U,45154,999,31034,.13388744E-2,.48E-5,0
ONEWEB-0051,2020-008AA,2026-07-04T18:52:34.555584,13.11415271,.00021427,87.8876,17.5626,91.0969,269.0405,0,U,45155,999,31339,-.15259192E-3,-.41E-6,0
ONEWEB-0052,2020-008AB,2026-07-04T19:21:21.168000,13.10371862,.00019484,87.8819,32.7527,74.8767,285.2576,0,U,45156,999,31024,.11802058E-2,.425E-5,0
