ONEWEB-0012             
1 44057U 19010A   26185.80845953  .00000024  00000+0  30385-4 0  9993
2 44057  87.9081 225.2853 0001695  88.0737 272.0588 13.16596454353889
ONEWEB-0010             
1 44058U 19010B   26185.83380080 -.00000074  00000+0 -22724-3 0  9996
2 44058  87.9079 225.2765 0002181 104.2315 255.9058 13.16592510353930
ONEWEB-0008             
1 44059U 19010C   26185.85912975  .00000096  00000+0  21853-3 0  9997
2 44059  87.9083 225.2666 0002261  90.5104 269.6286 13.16592943354057
ONEWEB-0007             
1 44060U 19010D   26185.90828683 -.00000138  00000+0 -40060-3 0  9997
2 44060  87.8995 255.6906 0001809 104.9667 255.1664 13.15547941353703
ONEWEB-0006             
1 44061U 19010E   26185.91225339 -.00000080  00000+0 -24562-3 0  9993
2 44061  87.9001 255.6561 0002184 100.4269 259.7107 13.15550465353758
ONEWEB-0011             
1 44062U 19010F   26185.42421009  .00000143  00000+0  34535-3 0  9991
2 44062  87.9006 255.7631 0002234 100.1381 260.0001 13.15548901353683
ONEWEB-0013             
1 45131U 20008A   26185.89735452 -.00000062  00000+0 -21777-3 0  9995
2 45131  87.8510  49.2510 0001380  47.0476 313.0767 13.09462786308381
ONEWEB-0017             
1 45132U 20008B   26185.86744503  .00000599  00000+0  16791-2 0  9992
2 45132  87.8817  32.7453 0001871  89.4038 270.7304 13.10375737310261
ONEWEB-0020             
1 45133U 20008C   26185.83684607 -.00000614  00000+0 -17940-2 0  9995
2 45133  87.8822  32.7511 0001811  85.0308 275.1026 13.10372766310651
ONEWEB-0021             
1 45134U 20008D   26185.85212042 -.00000205  00000+0 -62344-3 0  9993
2 45134  87.8822  32.7628 0001702  86.7882 273.3440 13.10375246310965
ONEWEB-0023             
1 45136U 20008F   26185.86316915  .00000473  00000+0  13191-2 0  9990
2 45136  87.8828  32.7438 0001879  80.1250 280.0090 13.10378594310396
ONEWEB-0024             
1 45137U 20008G   26185.83527727 -.00000664  00000+0 -19389-2 0  9992
2 45137  87.8831  32.7430 0001781  87.7656 272.3675 13.10371318310556
ONEWEB-0025             
1 45138U 20008H   26185.83500603 -.00000571  00000+0 -16718-2 0  9997
2 45138  87.8832  32.7329 0002287  83.8171 276.3217 13.10371992310886
ONEWEB-0026             
1 45139U 20008J   26185.78311271 -.00000430  00000+0 -12488-2 0  9997
2 45139  87.8878  17.5643 0001935  91.5251 268.6098 13.11415229313417
ONEWEB-0028             
1 45140U 20008K   26185.83483891  .00000540  00000+0  14867-2 0  9996
2 45140  87.8873  17.5616 0001517  72.2751 287.8543 13.11414942310934
ONEWEB-0032             
1 45141U 20008L   26185.86926852  .00000688  00000+0  19349-2 0  9992
2 45141  87.8820  32.7471 0001673  69.4920 290.6387 13.10373641310616
ONEWEB-0033             
1 45142U 20008M   26185.84363201 -.00000415  00000+0 -12243-2 0  9990
2 45142  87.8819  32.7588 0002070  99.7143 260.4218 13.10373859310528
ONEWEB-0035             
1 45143U 20008N   26185.86415084  .00000429  00000+0  11929-2 0  9993
2 45143  87.8818  32.7477 0001866  87.3730 272.7611 13.10373860310257
ONEWEB-0036             
1 45144U 20008P   26185.84181524 -.00000434  00000+0 -12784-2 0  9999
2 45144  87.8836  32.7682 0001792  79.1568 280.9761 13.10370213310674
ONEWEB-0038             
1 45145U 20008Q   26185.79342307 -.00000531  00000+0 -15355-2 0  9997
2 45145  87.8895  17.5737 0001188 152.1803 207.9388 13.11416711312632
ONEWEB-0039             
1 45146U 20008R   26185.84703189 -.00000257  00000+0 -77317-3 0  9995
2 45146  87.8822  32.7487 0001472  70.5015 289.6271 13.10376313310478
ONEWEB-0040             
1 45147U 20008S   26185.84022971 -.00000554  00000+0 -16234-2 0  9999
2 45147  87.8818  32.7607 0001990  77.9073 282.2277 13.10372949310171
ONEWEB-0043             
1 45149U 20008U   26185.84207428 -.00000480  00000+0 -14113-2 0  9995
2 45149  87.8825  32.7492 0001509  70.9088 289.2202 13.10368407310492
ONEWEB-0044             
1 45150U 20008V   26185.03091070  .00000693  00000+0  19487-2 0  9995
2 45150  87.8828  32.9120 0001828  81.2882 278.8453 13.10373777310687
ONEWEB-0045             
1 45151U 20008W   26185.78819806 -.00000471  00000+0 -13653-2 0  9998
2 45151  87.8888  17.5560 0001712  87.3085 272.8239 13.11415886312716
ONEWEB-0047             
1 45152U 20008X   26185.86387596  .00000591  00000+0  16562-2 0  9997
2 45152  87.8827  32.7453 0001785  93.1080 267.0252 13.10374100310519
ONEWEB-0048             
1 45153U 20008Y   26185.85891484  .00000366  00000+0  10135-2 0  9993
2 45153  87.8820  32.7659 0001787  88.3711 271.7621 13.10378273310124
ONEWEB-0049             
1 45154U 20008Z   26185.86217019  .00000480  00000+0  13389-2 0  9992
2 45154  87.8819  32.7545 0002106  76.2985 283.8376 13.10373907310346
ONEWEB-0051             
1 45155U 20008AA  26185.78651106 -.00000041  00000+0 -15259-3 0  9997
2 45155  87.8876  17.5626 0002142  91.0969 269.0405 13.11415271313397
ONEWEB-0052             
1 45156U 20008AB  26185.80649500  .00000425  00000+0  11802-2 0  9999
2 45156  87.8819  32.7527 0001948  74.8767 285.2576 13.10371862310248
